QIANFAN-41              
1 62242U 24232F   25324.69081689  .00000194  00000+0  28156-3 0  9990
2 62242  89.0044  43.4183 0012399 250.3359 109.6454 13.50977361 96272
QIANFAN-42              
1 62243U 24232G   25324.64518280  .00000636  00000+0  26811-3 0  9995
2 62243  89.0035  39.8773 0016409 150.4685 209.7438 14.24457475 98227
QIANFAN-43              
1 62244U 24232H   25324.68663875  .00000188  00000+0  27301-3 0  9998
2 62244  89.0048  43.4829 0013819 256.7193 103.2417 13.50978007 64888
QIANFAN-44              
1 62245U 24232J   25324.67435699  .00000185  00000+0  26863-3 0  9998
2 62245  89.0047  43.2954 0012085 252.9557 107.0271 13.50972708 96350
QIANFAN-45              
1 62246U 24232K   25324.64141178  .00000176  00000+0  25425-3 0  9995
2 62246  89.0050  43.4443 0012751 252.8914 107.0841 13.50976493 96275
QIANFAN-46              
1 62247U 24232L   25324.66613051  .00000191  00000+0  27810-3 0  9999
2 62247  89.0046  43.5118 0012698 259.0683 100.9040 13.50974661 96237
QIANFAN-47              
1 62248U 24232M   25324.67023954  .00000203  00000+0  29553-3 0  9998
2 62248  89.0042  43.4452 0013144 258.2274 101.7402 13.50977291 96264
QIANFAN-48              
1 62249U 24232N   25324.70725001  .00000159  00000+0  22848-3 0  9995
2 62249  89.0046  43.4425 0015368 261.4862  98.4547 13.50972296 96271
